STARLINK-32537          
1 61923U 24207M   26068.08050523  .00028705  00000+0  10489-2 0  9996
2 61923  42.9996 289.0978 0001558 273.0497  87.0176 15.27569636 74589
HAWK-11A                
1 62382U 24247F   26068.51231358  .00009457  00000+0  34106-3 0  9991
2 62382  44.9941 114.3328 0005466 327.3713  32.6832 15.28849427 67741
